[
    {
        "Altitude(m)": 610399.5494759483,
        "Argument of Periapsis(deg)": 0.0,
        "Eccentricity": 0.0,
        "Inclination(deg)": 60.0,
        "Latitude(deg)": 52.111391879304925,
        "Longitude(deg)": 22.584162264077392,
        "Mean Anomaly(deg)": 65.4545,
        "RAAN(deg)": 75.0,
        "Satellite Name": "Test1 334",
        "Satellite Number": 334,
        "Semi-Major Axis(m)": 6980739.136638005,
        "Time(s)": 0
    },
    {
        "Altitude(m)": 610481.7010467569,
        "Argument of Periapsis(deg)": 0.00010418945913296404,
        "Eccentricity": 0.0,
        "Inclination(deg)": 60.0,
        "Latitude(deg)": 52.4709956553699,
        "Longitude(deg)": 23.366297630505976,
        "Mean Anomaly(deg)": 66.07460614546183,
        "RAAN(deg)": 74.99957995086027,
        "Satellite Name": "Test1 334",
        "Satellite Number": 334,
        "Semi-Major Axis(m)": 6980739.136638005,
        "Time(s)": 10
    },
    {
        "Altitude(m)": 610562.3914323759,
        "Argument of Periapsis(deg)": 0.0002083789182659281,
        "Eccentricity": 0.0,
        "Inclination(deg)": 60.0,
        "Latitude(deg)": 52.82475204297667,
        "Longitude(deg)": 24.161846077698595,
        "Mean Anomaly(deg)": 66.69471229092365,
        "RAAN(deg)": 74.99915990172052,
        "Satellite Name": "Test1 334",
        "Satellite Number": 334,
        "Semi-Major Axis(m)": 6980739.136638005,
        "Time(s)": 20
    },
    {
        "Altitude(m)": 610641.5731666539,
        "Argument of Periapsis(deg)": 0.00031256837739889213,
        "Eccentricity": 0.0,
        "Inclination(deg)": 60.0,
        "Latitude(deg)": 53.17249151454522,
        "Longitude(deg)": 24.970972121074006,
        "Mean Anomaly(deg)": 67.3148184363855,
        "RAAN(deg)": 74.99873985258078,
        "Satellite Name": "Test1 334",
        "Satellite Number": 334,
        "Semi-Major Axis(m)": 6980739.136638005,
        "Time(s)": 30
    },
    {
        "Altitude(m)": 610719.1997399081,
        "Argument of Periapsis(deg)": 0.0004167578365318562,
        "Eccentricity": 0.0,
        "Inclination(deg)": 60.0,
        "Latitude(deg)": 53.51404106651235,
        "Longitude(deg)": 25.793828663668748,
        "Mean Anomaly(deg)": 67.93492458184731,
        "RAAN(deg)": 74.99831980344103,
        "Satellite Name": "Test1 334",
        "Satellite Number": 334,
        "Semi-Major Axis(m)": 6980739.136638005,
        "Time(s)": 40
    },
    {
        "Altitude(m)": 610795.225621218,
        "Argument of Periapsis(deg)": 0.0005209472956648203,
        "Eccentricity": 0.0,
        "Inclination(deg)": 60.0,
        "Latitude(deg)": 53.849224341291425,
        "Longitude(deg)": 26.630554581934504,
        "Mean Anomaly(deg)": 68.55503072730914,
        "RAAN(deg)": 74.9978997543013,
        "Satellite Name": "Test1 334",
        "Satellite Number": 334,
        "Semi-Major Axis(m)": 6980739.136638005,
        "Time(s)": 50
    },
    {
        "Altitude(m)": 610869.6062802919,
        "Argument of Periapsis(deg)": 0.0006251367547977843,
        "Eccentricity": 0.0,
        "Inclination(deg)": 60.0,
        "Latitude(deg)": 54.177861773559464,
        "Longitude(deg)": 27.481273758762697,
        "Mean Anomaly(deg)": 69.17513687277099,
        "RAAN(deg)": 74.99747970516155,
        "Satellite Name": "Test1 334",
        "Satellite Number": 334,
        "Semi-Major Axis(m)": 6980739.136638005,
        "Time(s)": 60
    },
    {
        "Altitude(m)": 610942.2982087696,
        "Argument of Periapsis(deg)": 0.0007293262139307483,
        "Eccentricity": 0.0,
        "Inclination(deg)": 60.0,
        "Latitude(deg)": 54.49977076253339,
        "Longitude(deg)": 28.34609405516783,
        "Mean Anomaly(deg)": 69.79524301823281,
        "RAAN(deg)": 74.9970596560218,
        "Satellite Name": "Test1 334",
        "Satellite Number": 334,
        "Semi-Major Axis(m)": 6980739.136638005,
        "Time(s)": 70
    },
    {
        "Altitude(m)": 611013.2589410548,
        "Argument of Periapsis(deg)": 0.0008335156730637124,
        "Eccentricity": 0.0,
        "Inclination(deg)": 60.0,
        "Latitude(deg)": 54.81476587185752,
        "Longitude(deg)": 29.225104713370246,
        "Mean Anomaly(deg)": 70.41534916369464,
        "RAAN(deg)": 74.99663960688207,
        "Satellite Name": "Test1 334",
        "Satellite Number": 334,
        "Semi-Major Axis(m)": 6980739.136638005,
        "Time(s)": 80
    },
    {
        "Altitude(m)": 611082.4470746105,
        "Argument of Periapsis(deg)": 0.0009377051321966765,
        "Eccentricity": 0.0,
        "Inclination(deg)": 60.0,
        "Latitude(deg)": 55.122659058666336,
        "Longitude(deg)": 30.11837522407345,
        "Mean Anomaly(deg)": 71.03545530915646,
        "RAAN(deg)": 74.99621955774232,
        "Satellite Name": "Test1 334",
        "Satellite Number": 334,
        "Semi-Major Axis(m)": 6980739.136638005,
        "Time(s)": 90
    },
    {
        "Altitude(m)": 611149.8222897482,
        "Argument of Periapsis(deg)": 0.0010418945913296407,
        "Eccentricity": 0.0,
        "Inclination(deg)": 60.0,
        "Latitude(deg)": 55.42325993328004,
        "Longitude(deg)": 31.025954153650183,
        "Mean Anomaly(deg)": 71.65556145461831,
        "RAAN(deg)": 74.99579950860257,
        "Satellite Name": "Test1 334",
        "Satellite Number": 334,
        "Semi-Major Axis(m)": 6980739.136638005,
        "Time(s)": 100
    },
    {
        "Altitude(m)": 611215.3453688698,
        "Argument of Periapsis(deg)": 0.0011460840504626045,
        "Eccentricity": 0.0,
        "Inclination(deg)": 60.0,
        "Latitude(deg)": 55.7163760508595,
        "Longitude(deg)": 31.947866428587904,
        "Mean Anomaly(deg)": 72.27566760008013,
        "RAAN(deg)": 74.99537945946284,
        "Satellite Name": "Test1 334",
        "Satellite Number": 334,
        "Semi-Major Axis(m)": 6980739.136638005,
        "Time(s)": 110
    },
    {
        "Altitude(m)": 611278.9782151589,
        "Argument of Periapsis(deg)": 0.0012502735095955685,
        "Eccentricity": 0.0,
        "Inclination(deg)": 60.0,
        "Latitude(deg)": 56.001813236183615,
        "Longitude(deg)": 32.88411211489146,
        "Mean Anomaly(deg)": 72.89577374554196,
        "RAAN(deg)": 74.99495941032309,
        "Satellite Name": "Test1 334",
        "Satellite Number": 334,
        "Semi-Major Axis(m)": 6980739.136638005,
        "Time(s)": 120
    },
    {
        "Altitude(m)": 611340.6838707427,
        "Argument of Periapsis(deg)": 0.0013544629687285324,
        "Eccentricity": 0.0,
        "Inclination(deg)": 60.0,
        "Latitude(deg)": 56.27937594249477,
        "Longitude(deg)": 33.83466519328852,
        "Mean Anomaly(deg)": 73.51587989100378,
        "RAAN(deg)": 74.99453936118336,
        "Satellite Name": "Test1 334",
        "Satellite Number": 334,
        "Semi-Major Axis(m)": 6980739.136638005,
        "Time(s)": 130
    },
    {
        "Altitude(m)": 611400.4265343072,
        "Argument of Periapsis(deg)": 0.0014586524278614966,
        "Eccentricity": 0.0,
        "Inclination(deg)": 60.0,
        "Latitude(deg)": 56.54886764510293,
        "Longitude(deg)": 34.79947083288726,
        "Mean Anomaly(deg)": 74.13598603646562,
        "RAAN(deg)": 74.9941193120436,
        "Satellite Name": "Test1 334",
        "Satellite Number": 334,
        "Semi-Major Axis(m)": 6980739.136638005,
        "Time(s)": 140
    },
    {
        "Altitude(m)": 611458.1715780919,
        "Argument of Periapsis(deg)": 0.0015628418869944607,
        "Eccentricity": 0.0,
        "Inclination(deg)": 60.0,
        "Latitude(deg)": 56.81009127015015,
        "Longitude(deg)": 35.77844420635234,
        "Mean Anomaly(deg)": 74.75609218192746,
        "RAAN(deg)": 74.99369926290386,
        "Satellite Name": "Test1 334",
        "Satellite Number": 334,
        "Semi-Major Axis(m)": 6980739.136638005,
        "Time(s)": 150
    },
    {
        "Altitude(m)": 611513.8855643835,
        "Argument of Periapsis(deg)": 0.0016670313461274247,
        "Eccentricity": 0.0,
        "Inclination(deg)": 60.0,
        "Latitude(deg)": 57.06284965858266,
        "Longitude(deg)": 36.77146935278012,
        "Mean Anomaly(deg)": 75.37619832738928,
        "RAAN(deg)": 74.99327921376411,
        "Satellite Name": "Test1 334",
        "Satellite Number": 334,
        "Semi-Major Axis(m)": 6980739.136638005,
        "Time(s)": 160
    },
    {
        "Altitude(m)": 611567.5362613922,
        "Argument of Periapsis(deg)": 0.0017712208052603888,
        "Eccentricity": 0.0,
        "Inclination(deg)": 60.0,
        "Latitude(deg)": 57.30694606499016,
        "Longitude(deg)": 37.77839659609261,
        "Mean Anomaly(deg)": 75.99630447285111,
        "RAAN(deg)": 74.99285916462438,
        "Satellite Name": "Test1 334",
        "Satellite Number": 334,
        "Semi-Major Axis(m)": 6980739.136638005,
        "Time(s)": 170
    },
    {
        "Altitude(m)": 611619.0926585586,
        "Argument of Periapsis(deg)": 0.001875410264393353,
        "Eccentricity": 0.0,
        "Inclination(deg)": 60.0,
        "Latitude(deg)": 57.54218469054359,
        "Longitude(deg)": 38.79904156687794,
        "Mean Anomaly(deg)": 76.61641061831293,
        "RAAN(deg)": 74.99243911548463,
        "Satellite Name": "Test1 334",
        "Satellite Number": 334,
        "Semi-Major Axis(m)": 6980739.136638005,
        "Time(s)": 180
    },
    {
        "Altitude(m)": 611668.5249812527,
        "Argument of Periapsis(deg)": 0.0019795997235263173,
        "Eccentricity": 0.0,
        "Inclination(deg)": 60.0,
        "Latitude(deg)": 57.76837124877959,
        "Longitude(deg)": 39.83318433825145,
        "Mean Anomaly(deg)": 77.23651676377476,
        "RAAN(deg)": 74.9920190663449,
        "Satellite Name": "Test1 334",
        "Satellite Number": 334,
        "Semi-Major Axis(m)": 6980739.136638005,
        "Time(s)": 190
    }
]